OBJECT_NAME,OBJECT_ID,EPOCH,MEAN_MOTION,ECCENTRICITY,INCLINATION,RA_OF_ASC_NODE,ARG_OF_PERICENTER,MEAN_ANOMALY,EPHEMERIS_TYPE,CLASSIFICATION_TYPE,NORAD_CAT_ID,ELEMENT_SET_NO,REV_AT_EPOCH,BSTAR,MEAN_MOTION_DOT,MEAN_MOTION_DDOT
SHERPA-LTC2,2022-107BG,2026-07-22T21:15:16.724736,14.69960392,.03932489,53.2365,69.1826,326.2838,31.3674,0,U,53754,999,20779,.1766377E-3,.3297E-4,0
CENTISPACE-1 S3,2022-108A,2026-07-22T21:53:09.366144,14.61288418,.00108312,53.5324,267.5318,82.2028,278.0176,0,U,53757,999,20675,.76499839E-4,.191E-5,0
CENTISPACE-1 S4,2022-108B,2026-07-22T21:06:23.704992,14.61973860,.00102502,53.5298,265.0138,71.5780,288.6309,0,U,53758,999,20678,.79997277E-4,.213E-5,0
BLUEWALKER-3,2022-111AL,2026-07-22T18:42:04.411872,15.38668225,.00047896,53.2275,226.8231,299.0530,60.9995,0,U,53807,999,21568,.13556107E-3,.4863E-4,0
YUNHAI-1 03,2022-115A,2026-07-22T22:39:11.833344,14.32741386,.00037264,98.5550,201.6398,312.6365,47.4505,0,U,53877,999,20063,.11584183E-3,.272E-5,0
CENTISPACE-1 S5,2022-126A,2026-07-22T21:13:17.217120,14.63067283,.00139688,54.9992,70.1055,139.3697,220.8342,0,U,54020,999,20226,.16313224E-3,.655E-5,0
CENTISPACE-1 S6,2022-126B,2026-07-22T21:29:17.746656,14.62325361,.00157347,54.9994,72.0944,140.8599,219.3536,0,U,54021,999,20222,.1245504E-3,.445E-5,0
OTB-3-GAZELLE,2022-127A,2026-07-22T17:00:27.124128,14.42685986,.00144628,98.3967,194.8758,82.2362,278.0469,0,U,54023,999,19948,.48807974E-4,.119E-5,0
ASO-S,2022-129A,2026-07-22T22:45:03.591936,14.52077662,.00139853,98.2761,208.5185,348.6625,11.4253,0,U,54029,999,20061,.57173442E-4,.187E-5,0
HJ-2E,2022-132A,2026-07-22T23:18:44.093088,15.22770501,.00183189,97.3812,207.7164,240.2021,119.7394,0,U,54035,999,20986,.36956724E-3,.8603E-4,0
COSMOS 2561,2022-137A,2026-07-20T21:07:52.266720,15.52463802,.0008242,96.9163,259.6361,255.0048,105.0294,0,U,54109,999,21157,.15383E-3,.933E-4,0
GONETS-M 23,2022-139A,2026-07-22T22:08:59.832672,12.42892207,.00224003,82.5101,326.0873,142.2606,218.0050,0,U,54150,999,17008,.12439891E-3,.27E-6,0
GONETS-M 24,2022-139B,2026-07-22T23:26:06.671904,12.42892652,.00175126,82.5017,325.0893,151.7778,208.4254,0,U,54151,999,17009,.55039962E-4,.18E-6,0
GONETS-M 25,2022-139C,2026-07-22T23:06:35.677152,12.42891060,.0021432,82.5082,325.8033,150.6710,209.5577,0,U,54152,999,17009,.61875248E-4,.19E-6,0
SKIF-D,2022-139D,2026-07-21T05:35:34.391616,5.00433163,.00074795,89.9488,96.6583,184.8783,175.1861,0,U,54153,999,6581,0,-.11E-6,0
MATS,2022-147A,2026-07-22T17:48:01.678176,15.05536712,.00142579,97.6843,205.1901,80.8274,279.4565,0,U,54227,999,20311,.17650541E-3,.2483E-4,0
EOS-6 (OCEANSAT-3),2022-158A,2026-07-22T23:34:07.384224,14.46987581,.00008477,98.3550,301.7025,152.0890,208.0348,0,U,54361,999,19301,.72674893E-4,.221E-5,0
DONGPO 09,2022-167D,2026-07-22T23:06:45.055008,15.37063643,.00022456,97.6928,16.5935,33.5626,326.5759,0,U,54685,999,20094,.37868688E-3,.13657E-3,0
DONGPO 08,2022-167E,2026-07-22T22:36:15.757056,15.34298586,.00088667,97.6893,13.5780,50.0071,310.1948,0,U,54686,999,20080,.37236824E-3,.12301E-3,0
DONGPO 10,2022-167H,2026-07-22T22:18:31.463712,15.35117363,.00042877,97.6974,15.6016,2.3259,357.8002,0,U,54689,999,20084,.35427168E-3,.11997E-3,0
JILIN-1 GAOFEN 03D48,2022-167P,2026-07-22T23:22:49.004256,15.35915080,.00057646,97.6909,15.0391,3.2982,356.8298,0,U,54695,999,20088,.36380117E-3,.12644E-3,0
STAR VIBE,2023-001A,2026-07-22T23:11:07.541664,15.43511149,.00046427,97.3150,268.5932,4.0369,356.0916,0,U,55009,999,19774,.36099739E-3,.16116E-3,0
BRO-8,2023-001C,2026-07-22T22:32:51.248256,15.51139941,.00040696,97.3180,269.6879,9.1477,350.9849,0,U,55011,999,19774,.66515873E-3,.38857E-3,0
CONNECTA T1.2,2023-001D,2026-07-22T10:29:12.435936,15.53327700,.00033781,97.3235,274.8140,327.9961,32.1086,0,U,55012,999,19801,.76120156E-3,.48155E-3,0
BIRKELAND,2023-001G,2026-07-22T22:34:03.362880,15.40631236,.00055137,97.3328,272.0120,352.9319,7.1849,0,U,55015,999,19785,.23796436E-3,.9614E-4,0
ION SCV-008,2023-001AU,2026-07-22T17:08:06.184608,15.28942226,.00133981,97.5713,300.6373,243.7123,116.2741,0,U,55051,999,19676,.22469085E-3,.6253E-4,0
ION SCV-007,2023-001BD,2026-07-22T21:16:20.002368,14.77581051,.0011516,97.8985,266.1897,215.0654,144.9799,0,U,55060,999,19152,.53710528E-4,.333E-5,0
HUYGENS,2023-001CN,2026-07-22T22:34:10.401024,15.40634224,.0007645,97.3231,271.1952,321.6501,38.4202,0,U,55093,999,19787,.2465739E-3,.9971E-4,0
SHARJAHSAT-1,2023-001CZ,2026-07-22T22:46:11.575776,15.50342409,.00039935,97.3141,273.2393,351.6162,8.5022,0,U,55104,999,19803,.40818412E-3,.23099E-3,0
HORUS 1,2023-025A,2026-07-22T22:48:56.288736,15.23286812,.00018128,97.3447,277.7925,114.0790,246.0636,0,U,55690,999,18949,.26493473E-3,.6214E-4,0
