SHERPA-LTC2             
1 53754U 22107BG  26203.88561024  .00003297  00000+0  17664-3 0  9990
2 53754  53.2365  69.1826 0393248 326.2838  31.3674 14.69960392207791
CENTISPACE-1 S3         
1 53757U 22108A   26203.91191396  .00000191  00000+0  76500-4 0  9994
2 53757  53.5324 267.5318 0010831  82.2028 278.0176 14.61288418206752
CENTISPACE-1 S4         
1 53758U 22108B   26203.87944103  .00000213  00000+0  79997-4 0  9990
2 53758  53.5298 265.0138 0010250  71.5780 288.6309 14.61973860206787
BLUEWALKER-3            
1 53807U 22111AL  26203.77921773  .00004863  00000+0  13556-3 0  9999
2 53807  53.2275 226.8231 0004789 299.0530  60.9995 15.38668225215685
YUNHAI-1 03             
1 53877U 22115A   26203.94388696  .00000272  00000+0  11584-3 0  9999
2 53877  98.5550 201.6398 0003726 312.6365  47.4505 14.32741386200632
CENTISPACE-1 S5         
1 54020U 22126A   26203.88422705  .00000655  00000+0  16313-3 0  9995
2 54020  54.9992  70.1055 0013968 139.3697 220.8342 14.63067283202267
CENTISPACE-1 S6         
1 54021U 22126B   26203.89534429  .00000445  00000+0  12455-3 0  9994
2 54021  54.9994  72.0944 0015734 140.8599 219.3536 14.62325361202226
OTB-3-GAZELLE           
1 54023U 22127A   26203.70864727  .00000119  00000+0  48808-4 0  9994
2 54023  98.3967 194.8758 0014462  82.2362 278.0469 14.42685986199480
ASO-S                   
1 54029U 22129A   26203.94795824  .00000187  00000+0  57173-4 0  9999
2 54029  98.2761 208.5185 0013985 348.6625  11.4253 14.52077662200619
HJ-2E                   
1 54035U 22132A   26203.97134367  .00008603  00000+0  36957-3 0  9999
2 54035  97.3812 207.7164 0018318 240.2021 119.7394 15.22770501209867
COSMOS 2561             
1 54109U 22137A   26201.88046605  .00009330  00000+0  15383-3 0  9999
2 54109  96.9163 259.6361 0008242 255.0048 105.0294 15.52463802211570
GONETS-M 23             
1 54150U 22139A   26203.92291473  .00000027  00000+0  12440-3 0  9994
2 54150  82.5101 326.0873 0022400 142.2606 218.0050 12.42892207170081
GONETS-M 24             
1 54151U 22139B   26203.97646611  .00000018  00000+0  55040-4 0  9992
2 54151  82.5017 325.0893 0017512 151.7778 208.4254 12.42892652170096
GONETS-M 25             
1 54152U 22139C   26203.96291293  .00000019  00000+0  61875-4 0  9998
2 54152  82.5082 325.8033 0021432 150.6710 209.5577 12.42891060170095
SKIF-D                  
1 54153U 22139D   26202.23303694 -.00000011  00000+0  00000+0 0  9998
2 54153  89.9488  96.6583 0007479 184.8783 175.1861  5.00433163 65813
MATS                    
1 54227U 22147A   26203.74168609  .00002483  00000+0  17651-3 0  9999
2 54227  97.6843 205.1901 0014257  80.8274 279.4565 15.05536712203115
EOS-6 (OCEANSAT-3)      
1 54361U 22158A   26203.98202991  .00000221  00000+0  72675-4 0  9995
2 54361  98.3550 301.7025 0000847 152.0890 208.0348 14.46987581193015
DONGPO 09               
1 54685U 22167D   26203.96302147  .00013657  00000+0  37869-3 0  9998
2 54685  97.6928  16.5935 0002245  33.5626 326.5759 15.37063643200948
DONGPO 08               
1 54686U 22167E   26203.94184904  .00012301  00000+0  37237-3 0  9990
2 54686  97.6893  13.5780 0008866  50.0071 310.1948 15.34298586200805
DONGPO 10               
1 54689U 22167H   26203.92953083  .00011997  00000+0  35427-3 0  9992
2 54689  97.6974  15.6016 0004287   2.3259 357.8002 15.35117363200841
JILIN-1 GAOFEN 03D48    
1 54695U 22167P   26203.97417829  .00012644  00000+0  36380-3 0  9996
2 54695  97.6909  15.0391 0005764   3.2982 356.8298 15.35915080200882
STAR VIBE               
1 55009U 23001A   26203.96605951  .00016116  00000+0  36100-3 0  9996
2 55009  97.3150 268.5932 0004642   4.0369 356.0916 15.43511149197741
BRO-8                   
1 55011U 23001C   26203.93948204  .00038857  00000+0  66516-3 0  9997
2 55011  97.3180 269.6879 0004069   9.1477 350.9849 15.51139941197741
CONNECTA T1.2           
1 55012U 23001D   26203.43694949  .00048155  00000+0  76120-3 0  9991
2 55012  97.3235 274.8140 0003378 327.9961  32.1086 15.53327700198010
BIRKELAND               
1 55015U 23001G   26203.94031670  .00009614  00000+0  23796-3 0  9994
2 55015  97.3328 272.0120 0005513 352.9319   7.1849 15.40631236197850
ION SCV-008             
1 55051U 23001AU  26203.71396047  .00006253  00000+0  22469-3 0  9993
2 55051  97.5713 300.6373 0013398 243.7123 116.2741 15.28942226196760
ION SCV-007             
1 55060U 23001BD  26203.88634262  .00000333  00000+0  53711-4 0  9993
2 55060  97.8985 266.1897 0011516 215.0654 144.9799 14.77581051191520
HUYGENS                 
1 55093U 23001CN  26203.94039816  .00009971  00000+0  24657-3 0  9993
2 55093  97.3231 271.1952 0007645 321.6501  38.4202 15.40634224197878
SHARJAHSAT-1            
1 55104U 23001CZ  26203.94874509  .00023099  00000+0  40818-3 0  9996
2 55104  97.3141 273.2393 0003993 351.6162   8.5022 15.50342409198030
HORUS 1                 
1 55690U 23025A   26203.95065149  .00006214  00000+0  26493-3 0  9998
2 55690  97.3447 277.7925 0001812 114.0790 246.0636 15.23286812189490
